CCSDS_OMM_VERS = 2.0
CREATION_DATE  = 
ORIGINATOR     = 

OBJECT_NAME    = UNKNOWN
OBJECT_ID      = 
CENTER_NAME    = EARTH
REF_FRAME      = TEME
TIME_SYSTEM    = UTC
MEAN_ELEMENT_THEORY = SGP/SGP4

EPOCH          = 2026-02-04T03:59:17.613312
MEAN_MOTION    = 13.74516478
ECCENTRICITY   = .002943
INCLINATION    = 82.9446
RA_OF_ASC_NODE = 194.5717
ARG_OF_PERICENTER = 213.0215
MEAN_ANOMALY   = 146.9104

EPHEMERIS_TYPE = 0
CLASSIFICATION_TYPE = U
NORAD_CAT_ID   = 87730
ELEMENT_SET_NO = 999
REV_AT_EPOCH   = 59267
BSTAR          = .106E-3
MEAN_MOTION_DOT = .116E-5
MEAN_MOTION_DDOT = 0

CCSDS_OMM_VERS = 2.0
CREATION_DATE  = 
ORIGINATOR     = 

OBJECT_NAME    = UNKNOWN
OBJECT_ID      = 
CENTER_NAME    = EARTH
REF_FRAME      = TEME
TIME_SYSTEM    = UTC
MEAN_ELEMENT_THEORY = SGP/SGP4

EPOCH          = 2026-02-09T02:25:04.884672
MEAN_MOTION    = 13.72352323
ECCENTRICITY   = .0133708
INCLINATION    = 99.3699
RA_OF_ASC_NODE = 275.6170
ARG_OF_PERICENTER = 37.8316
MEAN_ANOMALY   = 323.2138

EPHEMERIS_TYPE = 0
CLASSIFICATION_TYPE = U
NORAD_CAT_ID   = 87737
ELEMENT_SET_NO = 999
REV_AT_EPOCH   = 61186
BSTAR          = .80408E-4
MEAN_MOTION_DOT = .35E-6
MEAN_MOTION_DDOT = 0

CCSDS_OMM_VERS = 2.0
CREATION_DATE  = 
ORIGINATOR     = 

OBJECT_NAME    = UNKNOWN
OBJECT_ID      = 
CENTER_NAME    = EARTH
REF_FRAME      = TEME
TIME_SYSTEM    = UTC
MEAN_ELEMENT_THEORY = SGP/SGP4

EPOCH          = 2026-02-12T06:55:32.721024
MEAN_MOTION    = 14.35942168
ECCENTRICITY   = .0358326
INCLINATION    = 65.6704
RA_OF_ASC_NODE = 352.9060
ARG_OF_PERICENTER = 44.3764
MEAN_ANOMALY   = 100.9921

EPHEMERIS_TYPE = 0
CLASSIFICATION_TYPE = U
NORAD_CAT_ID   = 87764
ELEMENT_SET_NO = 999
REV_AT_EPOCH   = 62795
BSTAR          = .28535E-2
MEAN_MOTION_DOT = .17319E-3
MEAN_MOTION_DDOT = 0

CCSDS_OMM_VERS = 2.0
CREATION_DATE  = 
ORIGINATOR     = 

OBJECT_NAME    = UNKNOWN
OBJECT_ID      = 
CENTER_NAME    = EARTH
REF_FRAME      = TEME
TIME_SYSTEM    = UTC
MEAN_ELEMENT_THEORY = SGP/SGP4

EPOCH          = 2026-02-09T08:59:34.283904
MEAN_MOTION    = 13.19535137
ECCENTRICITY   = .0119441
INCLINATION    = 100.7430
RA_OF_ASC_NODE = 242.8141
ARG_OF_PERICENTER = 229.4316
MEAN_ANOMALY   = 129.6352

EPHEMERIS_TYPE = 0
CLASSIFICATION_TYPE = U
NORAD_CAT_ID   = 87771
ELEMENT_SET_NO = 999
REV_AT_EPOCH   = 54282
BSTAR          = .32745E-3
MEAN_MOTION_DOT = .88E-6
MEAN_MOTION_DDOT = 0

CCSDS_OMM_VERS = 2.0
CREATION_DATE  = 
ORIGINATOR     = 

OBJECT_NAME    = UNKNOWN
OBJECT_ID      = 
CENTER_NAME    = EARTH
REF_FRAME      = TEME
TIME_SYSTEM    = UTC
MEAN_ELEMENT_THEORY = SGP/SGP4

EPOCH          = 2026-02-04T22:05:54.502944
MEAN_MOTION    = 13.00713047
ECCENTRICITY   = .0033924
INCLINATION    = 102.3539
RA_OF_ASC_NODE = 279.7004
ARG_OF_PERICENTER = 95.0914
MEAN_ANOMALY   = 265.4056

EPHEMERIS_TYPE = 0
CLASSIFICATION_TYPE = U
NORAD_CAT_ID   = 87782
ELEMENT_SET_NO = 999
REV_AT_EPOCH   = 57503
BSTAR          = .10379E-1
MEAN_MOTION_DOT = .3111E-4
MEAN_MOTION_DDOT = 0

CCSDS_OMM_VERS = 2.0
CREATION_DATE  = 
ORIGINATOR     = 

OBJECT_NAME    = UNKNOWN
OBJECT_ID      = 
CENTER_NAME    = EARTH
REF_FRAME      = TEME
TIME_SYSTEM    = UTC
MEAN_ELEMENT_THEORY = SGP/SGP4

EPOCH          = 2026-02-05T00:25:39.808704
MEAN_MOTION    = 13.16820758
ECCENTRICITY   = .0245138
INCLINATION    = 99.6587
RA_OF_ASC_NODE = 150.6017
ARG_OF_PERICENTER = 236.3526
MEAN_ANOMALY   = 121.3988

EPHEMERIS_TYPE = 0
CLASSIFICATION_TYPE = U
NORAD_CAT_ID   = 87843
ELEMENT_SET_NO = 999
REV_AT_EPOCH   = 57130
BSTAR          = .56487E-2
MEAN_MOTION_DOT = .2489E-4
MEAN_MOTION_DDOT = 0

CCSDS_OMM_VERS = 2.0
CREATION_DATE  = 
ORIGINATOR     = 

OBJECT_NAME    = UNKNOWN
OBJECT_ID      = 
CENTER_NAME    = EARTH
REF_FRAME      = TEME
TIME_SYSTEM    = UTC
MEAN_ELEMENT_THEORY = SGP/SGP4

EPOCH          = 2026-02-12T07:37:49.195200
MEAN_MOTION    = 12.89136992
ECCENTRICITY   = .0577971
INCLINATION    = 98.8655
RA_OF_ASC_NODE = 353.7626
ARG_OF_PERICENTER = 111.6834
MEAN_ANOMALY   = 254.6817

EPHEMERIS_TYPE = 0
CLASSIFICATION_TYPE = U
NORAD_CAT_ID   = 87845
ELEMENT_SET_NO = 999
REV_AT_EPOCH   = 57314
BSTAR          = .54182E-2
MEAN_MOTION_DOT = .2905E-4
MEAN_MOTION_DDOT = 0

CCSDS_OMM_VERS = 2.0
CREATION_DATE  = 
ORIGINATOR     = 

OBJECT_NAME    = UNKNOWN
OBJECT_ID      = 
CENTER_NAME    = EARTH
REF_FRAME      = TEME
TIME_SYSTEM    = UTC
MEAN_ELEMENT_THEORY = SGP/SGP4

EPOCH          = 2026-01-28T02:12:36.093024
MEAN_MOTION    = 14.41181187
ECCENTRICITY   = .0036
INCLINATION    = 99.1569
RA_OF_ASC_NODE = 155.8496
ARG_OF_PERICENTER = 131.2496
MEAN_ANOMALY   = 229.1801

EPHEMERIS_TYPE = 0
CLASSIFICATION_TYPE = U
NORAD_CAT_ID   = 87878
ELEMENT_SET_NO = 999
REV_AT_EPOCH   = 61797
BSTAR          = .19573E-2
MEAN_MOTION_DOT = .6319E-4
MEAN_MOTION_DDOT = 0

CCSDS_OMM_VERS = 2.0
CREATION_DATE  = 
ORIGINATOR     = 

OBJECT_NAME    = UNKNOWN
OBJECT_ID      = 
CENTER_NAME    = EARTH
REF_FRAME      = TEME
TIME_SYSTEM    = UTC
MEAN_ELEMENT_THEORY = SGP/SGP4

EPOCH          = 2026-02-05T05:28:42.430368
MEAN_MOTION    = 14.06025319
ECCENTRICITY   = .0152858
INCLINATION    = 98.7325
RA_OF_ASC_NODE = 143.1659
ARG_OF_PERICENTER = 274.9137
MEAN_ANOMALY   = 83.4596

EPHEMERIS_TYPE = 0
CLASSIFICATION_TYPE = U
NORAD_CAT_ID   = 87884
ELEMENT_SET_NO = 999
REV_AT_EPOCH   = 62602
BSTAR          = .30486E-3
MEAN_MOTION_DOT = .512E-5
MEAN_MOTION_DDOT = 0

CCSDS_OMM_VERS = 2.0
CREATION_DATE  = 
ORIGINATOR     = 

OBJECT_NAME    = UNKNOWN
OBJECT_ID      = 
CENTER_NAME    = EARTH
REF_FRAME      = TEME
TIME_SYSTEM    = UTC
MEAN_ELEMENT_THEORY = SGP/SGP4

EPOCH          = 2026-02-05T16:23:21.683904
MEAN_MOTION    = 12.35471443
ECCENTRICITY   = .0890309
INCLINATION    = 28.6243
RA_OF_ASC_NODE = 29.2965
ARG_OF_PERICENTER = 53.7818
MEAN_ANOMALY   = 314.1760

EPHEMERIS_TYPE = 0
CLASSIFICATION_TYPE = U
NORAD_CAT_ID   = 87991
ELEMENT_SET_NO = 999
REV_AT_EPOCH   = 52979
BSTAR          = .11678E-1
MEAN_MOTION_DOT = .589E-4
MEAN_MOTION_DDOT = 0

CCSDS_OMM_VERS = 2.0
CREATION_DATE  = 
ORIGINATOR     = 

OBJECT_NAME    = UNKNOWN
OBJECT_ID      = 
CENTER_NAME    = EARTH
REF_FRAME      = TEME
TIME_SYSTEM    = UTC
MEAN_ELEMENT_THEORY = SGP/SGP4

EPOCH          = 2026-02-12T11:27:08.926560
MEAN_MOTION    = 14.46056650
ECCENTRICITY   = .0190073
INCLINATION    = 97.8404
RA_OF_ASC_NODE = 233.0131
ARG_OF_PERICENTER = 201.2629
MEAN_ANOMALY   = 158.0590

EPHEMERIS_TYPE = 0
CLASSIFICATION_TYPE = U
NORAD_CAT_ID   = 89005
ELEMENT_SET_NO = 999
REV_AT_EPOCH   = 54301
BSTAR          = .11369E-2
MEAN_MOTION_DOT = .503E-4
MEAN_MOTION_DDOT = 0

CCSDS_OMM_VERS = 2.0
CREATION_DATE  = 
ORIGINATOR     = 

OBJECT_NAME    = UNKNOWN
OBJECT_ID      = 
CENTER_NAME    = EARTH
REF_FRAME      = TEME
TIME_SYSTEM    = UTC
MEAN_ELEMENT_THEORY = SGP/SGP4

EPOCH          = 2026-02-04T23:46:31.808352
MEAN_MOTION    = 14.95225167
ECCENTRICITY   = .0022937
INCLINATION    = 98.0469
RA_OF_ASC_NODE = 301.6350
ARG_OF_PERICENTER = 142.0484
MEAN_ANOMALY   = 218.2357

EPHEMERIS_TYPE = 0
CLASSIFICATION_TYPE = U
NORAD_CAT_ID   = 89029
ELEMENT_SET_NO = 999
REV_AT_EPOCH   = 65918
BSTAR          = .75403E-3
MEAN_MOTION_DOT = .8279E-4
MEAN_MOTION_DDOT = 0

