UNKNOWN                 
1 87730U          26035.16617608  .00000116  00000+0  10600-3 0  9993
2 87730  82.9446 194.5717 0029430 213.0215 146.9104 13.74516478592676
UNKNOWN                 
1 87737U          26040.10075098  .00000035  00000+0  80408-4 0  9995
2 87737  99.3699 275.6170 0133708  37.8316 323.2138 13.72352323611862
UNKNOWN                 
1 87764U          26043.28857316  .00017319  00000+0  28535-2 0  9992
2 87764  65.6704 352.9060 0358326  44.3764 100.9921 14.35942168627956
UNKNOWN                 
1 87771U          26040.37470236  .00000088  00000+0  32745-3 0  9993
2 87771 100.7430 242.8141 0119441 229.4316 129.6352 13.19535137542823
UNKNOWN                 
1 87782U          26035.92076971  .00003111  00000+0  10379-1 0  9995
2 87782 102.3539 279.7004 0033924  95.0914 265.4056 13.00713047575039
UNKNOWN                 
1 87843U          26036.01782186  .00002489  00000+0  56487-2 0  9994
2 87843  99.6587 150.6017 0245138 236.3526 121.3988 13.16820758571305
UNKNOWN                 
1 87845U          26043.31793050  .00002905  00000+0  54182-2 0  9992
2 87845  98.8655 353.7626 0577971 111.6834 254.6817 12.89136992573140
UNKNOWN                 
1 87878U          26028.09208441  .00006319  00000+0  19573-2 0  9999
2 87878  99.1569 155.8496 0036000 131.2496 229.1801 14.41181187617971
UNKNOWN                 
1 87884U          26036.22826887  .00000512  00000+0  30486-3 0  9996
2 87884  98.7325 143.1659 0152858 274.9137  83.4596 14.06025319626024
UNKNOWN                 
1 87991U          26036.68288986  .00005890  00000+0  11678-1 0  9991
2 87991  28.6243  29.2965 0890309  53.7818 314.1760 12.35471443529793
UNKNOWN                 
1 89005U          26043.47718665  .00005030  00000+0  11369-2 0  9990
2 89005  97.8404 233.0131 0190073 201.2629 158.0590 14.46056650543019
UNKNOWN                 
1 89029U          26035.99064593  .00008279  00000+0  75403-3 0  9996
2 89029  98.0469 301.6350 0022937 142.0484 218.2357 14.95225167659189
